<osm version="0.6" generator="EuroRig original synthetic profile tests"><node id="10000001" version="1" lat="45.0" lon="27"/><node id="10000002" version="1" lat="45.0" lon="27.004"/><node id="10000003" version="1" lat="45.0" lon="27.012"/><node id="10000004" version="1" lat="45.0" lon="27.016"/><node id="10000005" version="1" lat="45.003" lon="27.004"/><node id="10000006" version="1" lat="45.003" lon="27.012"/><node id="10000007" version="1" lat="45.04" lon="27"/><node id="10000008" version="1" lat="45.04" lon="27.004"/><node id="10000009" version="1" lat="45.04" lon="27.012"/><node id="10000010" version="1" lat="45.04" lon="27.016"/><node id="10000011" version="1" lat="45.08" lon="27"/><node id="10000012" version="1" lat="45.08" lon="27.004"/><node id="10000013" version="1" lat="45.08" lon="27.012"/><node id="10000014" version="1" lat="45.08" lon="27.016"/><node id="10000015" version="1" lat="45.12" lon="27"/><node id="10000016" version="1" lat="45.12" lon="27.004"/><node id="10000017" version="1" lat="45.12" lon="27.012"/><node id="10000018" version="1" lat="45.12" lon="27.016"/><node id="10000019" version="1" lat="45.123" lon="27.004"/><node id="10000020" version="1" lat="45.123" lon="27.012"/><node id="10000021" version="1" lat="45.16" lon="27"/><node id="10000022" version="1" lat="45.16" lon="27.004"/><node id="10000023" version="1" lat="45.16" lon="27.012"/><node id="10000024" version="1" lat="45.16" lon="27.016"/><node id="10000025" version="1" lat="45.160799999999995" lon="27.006"/><node id="10000026" version="1" lat="45.16" lon="27.008"/><node id="10000027" version="1" lat="45.160799999999995" lon="27.01"/><node id="10000028" version="1" lat="45.163" lon="27.004"/><node id="10000029" version="1" lat="45.163" lon="27.012"/><way id="20000001" version="1"><nd ref="10000001"/><nd ref="10000002"/><tag k="highway" v="residential"/><tag k="name" v="QA road"/><tag k="surface" v="asphalt"/></way><way id="20000002" version="1"><nd ref="10000003"/><nd ref="10000004"/><tag k="highway" v="residential"/><tag k="name" v="QA road"/><tag k="surface" v="asphalt"/></way><way id="20000003" version="1"><nd ref="10000002"/><nd ref="10000003"/><tag k="highway" v="residential"/><tag k="name" v="QA road"/><tag k="surface" v="asphalt"/><tag k="maxheight" v="3.5"/><tag k="maxwidth" v="2.4"/><tag k="maxlength" v="12"/><tag k="maxweight" v="20"/><tag k="maxaxleload" v="8"/></way><way id="20000004" version="1"><nd ref="10000002"/><nd ref="10000005"/><nd ref="10000006"/><nd ref="10000003"/><tag k="highway" v="residential"/><tag k="name" v="QA road"/><tag k="surface" v="asphalt"/><tag k="maxheight" v="4.5"/><tag k="maxwidth" v="3"/><tag k="maxlength" v="20"/><tag k="maxweight" v="50"/><tag k="maxaxleload" v="12"/></way><way id="20000005" version="1"><nd ref="10000007"/><nd ref="10000008"/><tag k="highway" v="residential"/><tag k="name" v="QA road"/><tag k="surface" v="asphalt"/></way><way id="20000006" version="1"><nd ref="10000009"/><nd ref="10000010"/><tag k="highway" v="residential"/><tag k="name" v="QA road"/><tag k="surface" v="asphalt"/></way><way id="20000007" version="1"><nd ref="10000008"/><nd ref="10000009"/><tag k="highway" v="residential"/><tag k="name" v="QA road"/><tag k="surface" v="asphalt"/><tag k="hgv" v="no"/><tag k="maxheight" v="4.5"/><tag k="maxwidth" v="3"/><tag k="maxweight" v="50"/><tag k="maxaxleload" v="12"/></way><way id="20000008" version="1"><nd ref="10000011"/><nd ref="10000012"/><tag k="highway" v="residential"/><tag k="name" v="QA road"/><tag k="surface" v="asphalt"/></way><way id="20000009" version="1"><nd ref="10000013"/><nd ref="10000014"/><tag k="highway" v="residential"/><tag k="name" v="QA road"/><tag k="surface" v="asphalt"/></way><way id="20000010" version="1"><nd ref="10000012"/><nd ref="10000013"/><tag k="highway" v="residential"/><tag k="name" v="QA road"/><tag k="surface" v="asphalt"/><tag k="hgv" v="no"/><tag k="maxheight" v="3.5"/><tag k="maxwidth" v="3"/><tag k="maxweight" v="50"/><tag k="maxaxleload" v="12"/></way><way id="20000011" version="1"><nd ref="10000015"/><nd ref="10000016"/><tag k="highway" v="residential"/><tag k="name" v="QA road"/><tag k="surface" v="asphalt"/></way><way id="20000012" version="1"><nd ref="10000017"/><nd ref="10000018"/><tag k="highway" v="residential"/><tag k="name" v="QA road"/><tag k="surface" v="asphalt"/></way><way id="20000013" version="1"><nd ref="10000016"/><nd ref="10000017"/><tag k="highway" v="residential"/><tag k="name" v="QA road"/><tag k="surface" v="asphalt"/><tag k="tunnel" v="yes"/><tag k="tunnel:category" v="C"/></way><way id="20000014" version="1"><nd ref="10000016"/><nd ref="10000019"/><nd ref="10000020"/><nd ref="10000017"/><tag k="highway" v="residential"/><tag k="name" v="QA road"/><tag k="surface" v="asphalt"/><tag k="tunnel" v="yes"/><tag k="tunnel:category" v="B"/></way><way id="20000015" version="1"><nd ref="10000021"/><nd ref="10000022"/><tag k="highway" v="residential"/><tag k="name" v="QA road"/><tag k="surface" v="asphalt"/></way><way id="20000016" version="1"><nd ref="10000023"/><nd ref="10000024"/><tag k="highway" v="residential"/><tag k="name" v="QA road"/><tag k="surface" v="asphalt"/></way><way id="20000017" version="1"><nd ref="10000022"/><nd ref="10000025"/><nd ref="10000026"/><nd ref="10000027"/><nd ref="10000023"/><tag k="highway" v="residential"/><tag k="name" v="QA short zigzag"/><tag k="surface" v="asphalt"/></way><way id="20000018" version="1"><nd ref="10000022"/><nd ref="10000028"/><nd ref="10000029"/><nd ref="10000023"/><tag k="highway" v="motorway"/><tag k="name" v="QA highway"/><tag k="surface" v="asphalt"/><tag k="maxspeed" v="80"/></way></osm>